OBJECT_NAME,OBJECT_ID,EPOCH,MEAN_MOTION,ECCENTRICITY,INCLINATION,RA_OF_ASC_NODE,ARG_OF_PERICENTER,MEAN_ANOMALY,EPHEMERIS_TYPE,CLASSIFICATION_TYPE,NORAD_CAT_ID,ELEMENT_SET_NO,REV_AT_EPOCH,BSTAR,MEAN_MOTION_DOT,MEAN_MOTION_DDOT
DUCHIFAT-1,2014-033M,2026-06-08T03:02:21.766848,15.62815586,.00046211,98.0465,217.0282,132.1747,227.9902,0,U,40021,999,65433,.11779944E-2,.107166E-2,0
NANOSATC-BR1,2014-033Q,2026-06-08T01:22:17.936256,15.31168300,.0003448,98.0729,190.6378,188.9886,171.1292,0,U,40024,999,65258,.59014049E-3,.17706E-3,0
QB50P1,2014-033R,2026-06-07T23:43:43.953888,15.18121687,.00071533,98.0970,169.4906,252.8101,107.2349,0,U,40025,999,65163,.45487776E-3,.9215E-4,0
DTUSAT-2,2014-033W,2026-06-07T22:11:52.179072,15.14901729,.00061104,98.0866,156.0650,264.3965,95.6569,0,U,40030,999,65128,.4085379E-3,.7538E-4,0
QB50P2,2014-033Y,2026-06-07T23:39:58.024800,15.15044033,.00070319,98.0757,155.2946,193.2890,166.8157,0,U,40032,999,65127,.41769959E-3,.7741E-4,0
PERSEUS-M1,2014-033AF,2026-06-07T19:17:04.867584,14.95606924,.00107973,97.9642,102.7818,337.2410,22.8330,0,U,40039,999,64923,.22193807E-3,.2406E-4,0
POLYITAN-1,2014-033AJ,2026-06-08T01:05:03.223680,15.32938693,.00079092,98.0952,184.4437,168.1396,192.0032,0,U,40042,999,65219,.5996053E-3,.19032E-3,0
TIGRISAT,2014-033AK,2026-06-08T03:43:13.001376,14.85126633,.00507171,97.7825,309.3746,104.0252,256.6609,0,U,40043,999,64428,.28416481E-3,.2433E-4,0
AISAT,2014-034B,2026-06-08T05:02:38.780448,15.08657836,.00072489,98.2391,70.9635,248.4275,111.6179,0,U,40054,999,64585,.52818132E-3,.8209E-4,0
CANX-4,2014-034C,2026-06-08T05:38:39.680736,14.81248501,.00137406,98.3133,34.2191,44.2907,315.9401,0,U,40055,999,64320,.13618294E-3,.1005E-4,0
CANX-5,2014-034D,2026-06-08T03:59:16.917792,14.81265470,.00137439,98.3136,34.1908,44.6242,315.6074,0,U,40056,999,63400,.13662555E-3,.1009E-4,0
VELOX-I,2014-034E,2026-06-08T05:45:58.400928,14.97808171,.00064876,98.2551,63.7365,314.3512,45.7177,0,U,40057,999,64526,.35982067E-3,.4164E-4,0
GONETS-M 10,2014-036C,2026-06-08T05:11:17.320416,12.42945461,.00222738,82.5113,313.2477,159.4915,200.7064,0,U,40063,999,54113,.4077438E-3,.67E-6,0
METEOR-M 2,2014-037A,2026-06-08T06:38:05.414784,14.21459103,.00070145,98.5115,135.3309,65.8839,294.3072,0,U,40069,999,61805,.11503013E-3,.21E-5,0
DX1,2014-037C,2026-06-08T05:28:38.159616,14.89958597,.0006183,98.3865,120.3868,310.5850,49.4827,0,U,40071,999,64477,.22218546E-3,.2078E-4,0
UKUBE-1,2014-037F,2026-06-08T05:49:48.210240,15.13409283,.00021017,98.4241,161.5760,144.8287,215.3081,0,U,40074,999,64720,.42039937E-3,.7432E-4,0
GAOFEN-2,2014-049A,2026-06-08T07:47:56.640768,14.80888176,.00058964,98.0106,223.5405,262.4816,97.5726,0,U,40118,999,63792,.47179973E-4,.311E-5,0
BRITE-PL2 (HEWELIUSZ),2014-049B,2026-06-08T04:49:33.608352,14.94564336,.0015155,97.9088,271.1327,135.2665,224.9780,0,U,40119,999,64010,.23888273E-3,.2529E-4,0
CBERS 4,2014-079A,2026-06-08T07:47:13.552224,14.35506892,.00020452,98.3530,216.4339,71.4531,288.6878,0,U,40336,999,60268,.50089594E-4,.102E-5,0
SMAP,2015-003A,2026-06-08T06:13:25.393152,14.63358903,.00012677,98.1276,166.4804,93.8030,266.3317,0,U,40376,999,60631,.97432794E-4,.456E-5,0
GONETS-M 11,2015-020A,2026-06-08T07:33:03.852288,12.42876998,.00170032,82.4873,36.5204,24.3498,335.8381,0,U,40552,999,50763,.31359146E-3,.53E-6,0
GONETS-M 12,2015-020B,2026-06-08T06:55:01.942752,12.42891015,.00157458,82.4906,37.6584,10.0008,350.1382,0,U,40553,999,50762,.13009967E-3,.28E-6,0
GONETS-M 13,2015-020C,2026-06-08T06:16:37.799040,12.42870057,.00141031,82.4868,36.2926,355.7444,4.3513,0,U,40554,999,50759,.20471054E-3,.38E-6,0
DMC3-FM1,2015-032A,2026-06-08T07:34:09.935328,14.85728812,.00071728,97.6470,24.8377,82.5671,277.6360,0,U,40715,999,58859,.99710805E-4,.814E-5,0
DMC3-FM2,2015-032B,2026-06-08T06:28:59.040192,14.85736563,.00077197,97.6526,26.3621,87.0151,273.1948,0,U,40716,999,58858,.13566782E-3,.1127E-4,0
DMC3-FM3,2015-032C,2026-06-08T07:02:29.129280,14.85722476,.00068669,97.6577,28.1317,86.0578,274.1422,0,U,40717,999,58859,.21758931E-4,.137E-5,0
CARBONITE 1 (CBNT-1),2015-032D,2026-06-08T06:42:38.831904,14.83560929,.0013788,97.6510,337.7197,329.7587,30.2831,0,U,40718,999,58802,.19538283E-3,.1561E-4,0
DEORBITSAIL,2015-032E,2026-06-08T04:11:11.919264,15.03731005,.00111167,97.5898,16.1744,265.4742,94.5214,0,U,40719,999,58989,.41539509E-3,.5646E-4,0
2015-049G,2015-049G,2026-06-08T04:01:03.480960,15.65737269,.00041818,97.4563,202.7026,224.6759,135.4164,0,U,40905,999,59503,.43172881E-3,.43636E-3,0
LILACSAT-2,2015-049K,2026-06-08T07:20:53.894112,15.51149254,.00052798,97.4659,195.8117,288.2767,71.7910,0,U,40908,999,59437,.2594275E-3,.15058E-3,0
